[{"OBJECT_NAME":"STARLINK-36941","OBJECT_ID":"2026-039F","EPOCH":"2026-03-22T23:35:56.932512","MEAN_MOTION":15.50620076,"ECCENTRICITY":0.00017525,"INCLINATION":42.9998,"RA_OF_ASC_NODE":335.8638,"ARG_OF_PERICENTER":269.8781,"MEAN_ANOMALY":90.1878,"EPHEMERIS_TYPE":0,"CLASSIFICATION_TYPE":"U","NORAD_CAT_ID":67991,"ELEMENT_SET_NO":999,"REV_AT_EPOCH":371,"BSTAR":0.0014871922,"MEAN_MOTION_DOT":0.00088021,"MEAN_MOTION_DDOT":0},{"OBJECT_NAME":"STARLINK-36950","OBJECT_ID":"2026-039G","EPOCH":"2026-03-23T00:00:02.000160","MEAN_MOTION":15.50609119,"ECCENTRICITY":0.00014286,"INCLINATION":42.9997,"RA_OF_ASC_NODE":335.3914,"ARG_OF_PERICENTER":271.8352,"MEAN_ANOMALY":334.5233,"EPHEMERIS_TYPE":0,"CLASSIFICATION_TYPE":"U","NORAD_CAT_ID":67992,"ELEMENT_SET_NO":999,"REV_AT_EPOCH":501,"BSTAR":-0.0019510871,"MEAN_MOTION_DOT":-0.00113283,"MEAN_MOTION_DDOT":0},{"OBJECT_NAME":"STARLINK-36975","OBJECT_ID":"2026-039H","EPOCH":"2026-03-23T00:00:02.000160","MEAN_MOTION":15.50634186,"ECCENTRICITY":0.00014744,"INCLINATION":42.9997,"RA_OF_ASC_NODE":335.2941,"ARG_OF_PERICENTER":272.1708,"MEAN_ANOMALY":13.3498,"EPHEMERIS_TYPE":0,"CLASSIFICATION_TYPE":"U","NORAD_CAT_ID":67993,"ELEMENT_SET_NO":999,"REV_AT_EPOCH":501,"BSTAR":-0.0014324726,"MEAN_MOTION_DOT":-0.0008365,"MEAN_MOTION_DDOT":0},{"OBJECT_NAME":"STARLINK-36993","OBJECT_ID":"2026-039J","EPOCH":"2026-03-23T04:00:01.999584","MEAN_MOTION":15.50565581,"ECCENTRICITY":0.00017029,"INCLINATION":42.9998,"RA_OF_ASC_NODE":333.6099,"ARG_OF_PERICENTER":270.4884,"MEAN_ANOMALY":153.3372,"EPHEMERIS_TYPE":0,"CLASSIFICATION_TYPE":"U","NORAD_CAT_ID":67994,"ELEMENT_SET_NO":999,"REV_AT_EPOCH":504,"BSTAR":-0.00043973295,"MEAN_MOTION_DOT":-0.00026041,"MEAN_MOTION_DDOT":0},{"OBJECT_NAME":"STARLINK-36968","OBJECT_ID":"2026-039K","EPOCH":"2026-03-22T00:00:02.000160","MEAN_MOTION":15.50485382,"ECCENTRICITY":0.00013927,"INCLINATION":42.9997,"RA_OF_ASC_NODE":341.3417,"ARG_OF_PERICENTER":263.3408,"MEAN_ANOMALY":112.4555,"EPHEMERIS_TYPE":0,"CLASSIFICATION_TYPE":"U","NORAD_CAT_ID":67995,"ELEMENT_SET_NO":999,"REV_AT_EPOCH":485,"BSTAR":0.0011933122,"MEAN_MOTION_DOT":0.00070059,"MEAN_MOTION_DDOT":0},{"OBJECT_NAME":"STARLINK-36979","OBJECT_ID":"2026-039L","EPOCH":"2026-03-23T04:00:01.999584","MEAN_MOTION":15.50562166,"ECCENTRICITY":0.00016337,"INCLINATION":43,"RA_OF_ASC_NODE":333.4922,"ARG_OF_PERICENTER":263.0407,"MEAN_ANOMALY":207.9274,"EPHEMERIS_TYPE":0,"CLASSIFICATION_TYPE":"U","NORAD_CAT_ID":67996,"ELEMENT_SET_NO":999,"REV_AT_EPOCH":504,"BSTAR":-0.00012339919,"MEAN_MOTION_DOT":-7.57e-5,"MEAN_MOTION_DDOT":0},{"OBJECT_NAME":"STARLINK-36994","OBJECT_ID":"2026-039M","EPOCH":"2026-03-23T04:00:01.999584","MEAN_MOTION":15.50575636,"ECCENTRICITY":0.00017578,"INCLINATION":43,"RA_OF_ASC_NODE":333.856,"ARG_OF_PERICENTER":261.2942,"MEAN_ANOMALY":62.3364,"EPHEMERIS_TYPE":0,"CLASSIFICATION_TYPE":"U","NORAD_CAT_ID":67997,"ELEMENT_SET_NO":999,"REV_AT_EPOCH":504,"BSTAR":-0.00073214575,"MEAN_MOTION_DOT":-0.00043053,"MEAN_MOTION_DDOT":0},{"OBJECT_NAME":"STARLINK-36988","OBJECT_ID":"2026-039N","EPOCH":"2026-03-23T04:00:01.999584","MEAN_MOTION":15.50565126,"ECCENTRICITY":0.00015113,"INCLINATION":43,"RA_OF_ASC_NODE":333.7978,"ARG_OF_PERICENTER":276.0798,"MEAN_ANOMALY":71.2969,"EPHEMERIS_TYPE":0,"CLASSIFICATION_TYPE":"U","NORAD_CAT_ID":67998,"ELEMENT_SET_NO":999,"REV_AT_EPOCH":504,"BSTAR":-0.00039766497,"MEAN_MOTION_DOT":-0.00023589,"MEAN_MOTION_DDOT":0},{"OBJECT_NAME":"STARLINK-36926","OBJECT_ID":"2026-039P","EPOCH":"2026-03-23T04:00:01.999584","MEAN_MOTION":15.50467251,"ECCENTRICITY":0.0001413,"INCLINATION":43.0002,"RA_OF_ASC_NODE":333.8333,"ARG_OF_PERICENTER":273.4031,"MEAN_ANOMALY":59.5957,"EPHEMERIS_TYPE":0,"CLASSIFICATION_TYPE":"U","NORAD_CAT_ID":67999,"ELEMENT_SET_NO":999,"REV_AT_EPOCH":504,"BSTAR":0.0022385367,"MEAN_MOTION_DOT":0.00132702,"MEAN_MOTION_DDOT":0},{"OBJECT_NAME":"STARLINK-36931","OBJECT_ID":"2026-039Q","EPOCH":"2026-03-23T04:00:01.999584","MEAN_MOTION":15.5060716,"ECCENTRICITY":0.0001983,"INCLINATION":42.9999,"RA_OF_ASC_NODE":333.5513,"ARG_OF_PERICENTER":279.2669,"MEAN_ANOMALY":167.7639,"EPHEMERIS_TYPE":0,"CLASSIFICATION_TYPE":"U","NORAD_CAT_ID":68000,"ELEMENT_SET_NO":999,"REV_AT_EPOCH":504,"BSTAR":-0.00262467,"MEAN_MOTION_DOT":-0.00151538,"MEAN_MOTION_DDOT":0},{"OBJECT_NAME":"STARLINK-36903","OBJECT_ID":"2026-039R","EPOCH":"2026-03-23T04:00:01.999584","MEAN_MOTION":15.50144848,"ECCENTRICITY":0.00018166,"INCLINATION":43.0001,"RA_OF_ASC_NODE":333.8188,"ARG_OF_PERICENTER":255.7292,"MEAN_ANOMALY":82.5558,"EPHEMERIS_TYPE":0,"CLASSIFICATION_TYPE":"U","NORAD_CAT_ID":68001,"ELEMENT_SET_NO":999,"REV_AT_EPOCH":504,"BSTAR":-0.036424216,"MEAN_MOTION_DOT":-0.01891692,"MEAN_MOTION_DDOT":0},{"OBJECT_NAME":"STARLINK-36898","OBJECT_ID":"2026-039S","EPOCH":"2026-03-23T04:00:01.999584","MEAN_MOTION":15.48651061,"ECCENTRICITY":0.00016632,"INCLINATION":42.9994,"RA_OF_ASC_NODE":333.5972,"ARG_OF_PERICENTER":274.4617,"MEAN_ANOMALY":153.4659,"EPHEMERIS_TYPE":0,"CLASSIFICATION_TYPE":"U","NORAD_CAT_ID":68002,"ELEMENT_SET_NO":999,"REV_AT_EPOCH":504,"BSTAR":-0.038334846,"MEAN_MOTION_DOT":-0.01888096,"MEAN_MOTION_DDOT":0},{"OBJECT_NAME":"STARLINK-36862","OBJECT_ID":"2026-039T","EPOCH":"2026-03-23T04:00:01.999584","MEAN_MOTION":15.47225074,"ECCENTRICITY":0.00015355,"INCLINATION":43.0001,"RA_OF_ASC_NODE":333.7265,"ARG_OF_PERICENTER":271.0145,"MEAN_ANOMALY":104.6709,"EPHEMERIS_TYPE":0,"CLASSIFICATION_TYPE":"U","NORAD_CAT_ID":68003,"ELEMENT_SET_NO":999,"REV_AT_EPOCH":504,"BSTAR":-0.038954479,"MEAN_MOTION_DOT":-0.01830725,"MEAN_MOTION_DDOT":0},{"OBJECT_NAME":"STARLINK-36888","OBJECT_ID":"2026-039U","EPOCH":"2026-03-23T04:00:01.999584","MEAN_MOTION":15.48111386,"ECCENTRICITY":0.00017871,"INCLINATION":43.0001,"RA_OF_ASC_NODE":333.7747,"ARG_OF_PERICENTER":263.0195,"MEAN_ANOMALY":93.1431,"EPHEMERIS_TYPE":0,"CLASSIFICATION_TYPE":"U","NORAD_CAT_ID":68004,"ELEMENT_SET_NO":999,"REV_AT_EPOCH":504,"BSTAR":-0.038339269,"MEAN_MOTION_DOT":-0.01856194,"MEAN_MOTION_DDOT":0},{"OBJECT_NAME":"STARLINK-36910","OBJECT_ID":"2026-039V","EPOCH":"2026-03-23T04:00:01.999584","MEAN_MOTION":15.48045659,"ECCENTRICITY":0.00022288,"INCLINATION":42.9993,"RA_OF_ASC_NODE":333.51,"ARG_OF_PERICENTER":278.8119,"MEAN_ANOMALY":184.1422,"EPHEMERIS_TYPE":0,"CLASSIFICATION_TYPE":"U","NORAD_CAT_ID":68005,"ELEMENT_SET_NO":999,"REV_AT_EPOCH":504,"BSTAR":-0.040314825,"MEAN_MOTION_DOT":-0.01938194,"MEAN_MOTION_DDOT":0},{"OBJECT_NAME":"STARLINK-36889","OBJECT_ID":"2026-039W","EPOCH":"2026-03-23T04:00:01.999584","MEAN_MOTION":15.50668227,"ECCENTRICITY":0.0001321,"INCLINATION":43.0002,"RA_OF_ASC_NODE":333.8354,"ARG_OF_PERICENTER":274.6928,"MEAN_ANOMALY":56.9793,"EPHEMERIS_TYPE":0,"CLASSIFICATION_TYPE":"U","NORAD_CAT_ID":68006,"ELEMENT_SET_NO":999,"REV_AT_EPOCH":504,"BSTAR":-0.0021829079,"MEAN_MOTION_DOT":-0.00126751,"MEAN_MOTION_DDOT":0}]
