STARLINK-36941          
1 67991U 26039F   26081.98329783  .00088021  00000+0  14872-2 0  9990
2 67991  42.9998 335.8638 0001752 269.8781  90.1878 15.50620076  3713
STARLINK-36950          
1 67992U 26039G   26082.00002315 -.00113283  00000+0 -19511-2 0  9990
2 67992  42.9997 335.3914 0001428 271.8352 334.5233 15.50609119  5012
STARLINK-36975          
1 67993U 26039H   26082.00002315 -.00083650  00000+0 -14325-2 0  9993
2 67993  42.9997 335.2941 0001474 272.1708  13.3498 15.50634186  5019
STARLINK-36993          
1 67994U 26039J   26082.16668981 -.00026041  00000+0 -43973-3 0  9991
2 67994  42.9998 333.6099 0001702 270.4884 153.3372 15.50565581  5048
STARLINK-36968          
1 67995U 26039K   26081.00002315  .00070059  00000+0  11933-2 0  9993
2 67995  42.9997 341.3417 0001392 263.3408 112.4555 15.50485382  4853
STARLINK-36979          
1 67996U 26039L   26082.16668981 -.00007570  00000+0 -12340-3 0  9993
2 67996  43.0000 333.4922 0001633 263.0407 207.9274 15.50562166  5044
STARLINK-36994          
1 67997U 26039M   26082.16668981 -.00043053  00000+0 -73215-3 0  9998
2 67997  43.0000 333.8560 0001757 261.2942  62.3364 15.50575636  5047
STARLINK-36988          
1 67998U 26039N   26082.16668981 -.00023589  00000+0 -39766-3 0  9994
2 67998  43.0000 333.7978 0001511 276.0798  71.2969 15.50565126  5044
STARLINK-36926          
1 67999U 26039P   26082.16668981  .00132702  00000+0  22385-2 0  9999
2 67999  43.0002 333.8333 0001413 273.4031  59.5957 15.50467251  5041
STARLINK-36931          
1 68000U 26039Q   26082.16668981 -.00151538  00000+0 -26247-2 0  9994
2 68000  42.9999 333.5513 0001983 279.2669 167.7639 15.50607160  5042
STARLINK-36903          
1 68001U 26039R   26082.16668981 -.01891692  00000+0 -36424-1 0  9995
2 68001  43.0001 333.8188 0001816 255.7292  82.5558 15.50144848  5049
STARLINK-36898          
1 68002U 26039S   26082.16668981 -.01888096  00000+0 -38335-1 0  9993
2 68002  42.9994 333.5972 0001663 274.4617 153.4659 15.48651061  5043
STARLINK-36862          
1 68003U 26039T   26082.16668981 -.01830725  00000+0 -38954-1 0  9997
2 68003  43.0001 333.7265 0001535 271.0145 104.6709 15.47225074  5043
STARLINK-36888          
1 68004U 26039U   26082.16668981 -.01856194  00000+0 -38339-1 0  9993
2 68004  43.0001 333.7747 0001787 263.0195  93.1431 15.48111386  5049
STARLINK-36910          
1 68005U 26039V   26082.16668981 -.01938194  00000+0 -40315-1 0  9992
2 68005  42.9993 333.5100 0002228 278.8119 184.1422 15.48045659  5040
STARLINK-36889          
1 68006U 26039W   26082.16668981 -.00126751  00000+0 -21829-2 0  9990
2 68006  43.0002 333.8354 0001321 274.6928  56.9793 15.50668227  5045
